CAS-2T & KS-1Q          
1 41847U 16066G   21158.45640430  .00000076  00000-0  22556-4 0  9993
2 41847  98.6017 217.5446 0364109 250.1798 105.9800 14.38192729240444
NAYIF-1 (EO-88)         
1 42017U 17008BX  21158.41160713  .00001769  00000-0  67134-4 0  9998
2 42017  97.3164 226.1909 0007297 133.9140 226.2703 15.28140388239726
ZHUHAI-1 02 (CAS-4B)    
1 42759U 17034B   21158.65070789  .00000130  00000-0  21174-4 0  9994
2 42759  43.0168 234.9736 0007344 101.7628  53.3858 15.10218218219663
ZHUHAI-1 01 (CAS-4A)    
1 42761U 17034D   21158.70557855  .00000201  00000-0  25373-4 0  9991
2 42761  43.0175 233.7363 0007812 103.3511  36.5170 15.10305771219678
MAX VALIER SAT          
1 42778U 17036P   21158.71517553  .00001042  00000-0  46367-4 0  9993
2 42778  97.2554 207.6453 0011119 202.3320 157.7434 15.23586336219807
RADFXSAT (FOX-1B)       
1 43017U 17073E   21158.32436711  .00000642  00000-0  55114-4 0  9999
2 43017  97.7080  62.7113 0254374 333.7861  25.0655 14.79548811191624
FOX-1D (AO-92)          
1 43137U 18004AC  21158.75446847  .00001122  00000-0  47493-4 0  9990
2 43137  97.4068 232.8847 0007324 239.5170 120.5345 15.25232177189172
DIWATA-2B               
1 43678U 18084H   21158.79454407  .00000417  00000-0  47106-4 0  9990
2 43678  97.9225 284.0246 0011447  83.0017 277.2483 14.91755472141998
ES'HAIL 2               
1 43700U 18090A   21158.30028272  .00000153  00000-0  00000-0 0  9992
2 43700   0.0222 343.8876 0000932 108.4475 297.4729  1.00270272  9262
FOX-1CLIFF (AO-95)      
1 43770U 18099N   21158.74706089  .00000704  00000-0  68877-4 0  9997
2 43770  97.6653 229.1484 0016206  90.7689 269.5389 14.95320232137007
ITASAT 1                
1 43786U 18099AE  21158.80198820  .00000568  00000-0  56194-4 0  9996
2 43786  97.6669 229.8733 0016729  84.5429 275.7700 14.95612797137048
JY1SAT (JO-97)          
1 43803U 18099AX  21158.76742865 -.00000019  00000-0  33851-5 0  9993
2 43803  97.6634 229.5926 0016681  83.9897 276.3225 14.95861172137042
UWE-4                   
1 43880U 18111E   21158.69070302  .00000907  00000-0  84013-4 0  9995
2 43880  97.6881  66.5898 0013517 131.3652 228.8734 14.96863692131625
PSAT2 (NO-104)          
1 44354U 19036R   21158.41392153  .00009956  00000-0  12914-3 0  9993
2 44354  28.5266 193.9646 0326559 167.1381 193.7778 15.13255103107451
BRICSAT2 (NO-103)       
1 44355U 19036S   21158.35534949  .00017525  00000-0  19118-3 0  9992
2 44355  28.5251 150.9338 0265841 237.3091 120.1606 15.28954689107872
JAISAT-1                
1 44419U 19038F   21158.45845006  .00000965  00000-0  57026-4 0  9996
2 44419  97.5878 123.1966 0020833 351.7917   8.2971 15.13744323106282
DUCHIFAT-3              
1 44854U 19089C   21158.33881773  .00000279  00000-0  28739-4 0  9990
2 44854  36.9654 160.4500 0007741  48.8743 311.2673 14.99491417 81583
RS-44 & BREEZE-KM R/B   
1 44909U 19096E   21158.38575845  .00000018  00000-0  17965-4 0  9994
2 44909  82.5197 119.5018 0218377 116.4874 245.8805 12.79710045 67533
ORBITAL FACTORY 2 (OF-2)
1 45113U 19071C   21158.83973067  .00001801  00000-0  61982-4 0  9992
2 45113  51.6427  84.1224 0011169 258.7878 101.1849 15.35710658 75697
HUSKYSAT-1 (HO-107)     
1 45119U 19071J   21158.65609431  .00002533  00000-0  82607-4 0  9999
2 45119  51.6424  84.3918 0010574 254.5387 105.4429 15.35740953 75669
BY70-2                  
1 45857U 20042B   21158.88980726  .00001175  00000-0  17391-3 0  9990
2 45857  97.9834 234.7362 0009574 238.4693 121.5567 14.77006894 50130
SALSAT                  
1 46495U 20068K   21158.61090311  .00000073  00000-0  98600-5 0  9990
2 46495  97.6951  96.1653 0019010 103.6687 256.6657 15.03459031 37850
BY70-3                  
1 46839U 20079N   21158.73062935  .00002648  00000-0  83814-4 0  9998
2 46839  97.2406 232.7794 0005478 232.9909 243.1120 15.33620577 32717
RADFXSAT-2 (AO-109)     
1 47311U 21002C   21158.04166190  .00000472  00000-0  32644-4 0  9991
2 47311  60.6849 330.1733 0034975  42.2595 318.1176 15.21625332 21286
UVSQ-SAT                
1 47438U 21006AB  21158.39599267  .00000749  00000-0  45844-4 0  9991
2 47438  97.4878 219.7997 0014130 128.7009 231.5488 15.13118503 20530
DIY-1 (ARDUIQUBE)       
1 47963U 21022AH  21158.53619750  .00002323  00000-0  15786-3 0  9999
2 47963  97.5599  61.0450 0019467 344.3107  15.7515 15.07207613 10401
